[{"OBJECT_NAME":"ONEWEB-0600","OBJECT_ID":"2022-166Y","EPOCH":"2026-04-02T04:40:10.015968","MEAN_MOTION":13.2184514,"ECCENTRICITY":0.0001889,"INCLINATION":87.9175,"RA_OF_ASC_NODE":259.1223,"ARG_OF_PERICENTER":102.8189,"MEAN_ANOMALY":257.3156,"EPHEMERIS_TYPE":0,"CLASSIFICATION_TYPE":"U","NORAD_CAT_ID":54664,"ELEMENT_SET_NO":999,"REV_AT_EPOCH":16147,"BSTAR":0.005157800000000001,"MEAN_MOTION_DOT":2.144e-05,"MEAN_MOTION_DDOT":0.0},{"OBJECT_NAME":"ONEWEB-0601","OBJECT_ID":"2022-166Z","EPOCH":"2026-04-02T04:28:15.544128","MEAN_MOTION":13.21865043,"ECCENTRICITY":0.0001575,"INCLINATION":87.9169,"RA_OF_ASC_NODE":259.1416,"ARG_OF_PERICENTER":110.0103,"MEAN_ANOMALY":250.1201,"EPHEMERIS_TYPE":0,"CLASSIFICATION_TYPE":"U","NORAD_CAT_ID":54665,"ELEMENT_SET_NO":999,"REV_AT_EPOCH":16166,"BSTAR":0.0057646,"MEAN_MOTION_DOT":2.396e-05,"MEAN_MOTION_DDOT":0.0},{"OBJECT_NAME":"ONEWEB-0602","OBJECT_ID":"2022-166AA","EPOCH":"2026-04-02T03:37:26.889888","MEAN_MOTION":13.21804892,"ECCENTRICITY":0.0002447,"INCLINATION":87.9166,"RA_OF_ASC_NODE":259.1543,"ARG_OF_PERICENTER":97.7135,"MEAN_ANOMALY":262.4277,"EPHEMERIS_TYPE":0,"CLASSIFICATION_TYPE":"U","NORAD_CAT_ID":54666,"ELEMENT_SET_NO":999,"REV_AT_EPOCH":16150,"BSTAR":-0.0024116000000000003,"MEAN_MOTION_DOT":-9.83e-06,"MEAN_MOTION_DDOT":0.0},{"OBJECT_NAME":"ONEWEB-0603","OBJECT_ID":"2022-166AB","EPOCH":"2026-04-02T03:45:47.264256","MEAN_MOTION":13.21786813,"ECCENTRICITY":0.0001609,"INCLINATION":87.9187,"RA_OF_ASC_NODE":259.1016,"ARG_OF_PERICENTER":103.2269,"MEAN_ANOMALY":256.9045,"EPHEMERIS_TYPE":0,"CLASSIFICATION_TYPE":"U","NORAD_CAT_ID":54667,"ELEMENT_SET_NO":999,"REV_AT_EPOCH":16143,"BSTAR":-0.010721000000000001,"MEAN_MOTION_DOT":-4.41e-05,"MEAN_MOTION_DDOT":0.0},{"OBJECT_NAME":"ONEWEB-0604","OBJECT_ID":"2022-166AC","EPOCH":"2026-04-02T05:18:07.836192","MEAN_MOTION":13.21826825,"ECCENTRICITY":0.0001768,"INCLINATION":87.9186,"RA_OF_ASC_NODE":259.1034,"ARG_OF_PERICENTER":94.6531,"MEAN_ANOMALY":265.4805,"EPHEMERIS_TYPE":0,"CLASSIFICATION_TYPE":"U","NORAD_CAT_ID":54668,"ELEMENT_SET_NO":999,"REV_AT_EPOCH":16140,"BSTAR":-8.4822e-05,"MEAN_MOTION_DOT":-2.2e-07,"MEAN_MOTION_DDOT":0.0},{"OBJECT_NAME":"ONEWEB-0605","OBJECT_ID":"2022-166AD","EPOCH":"2026-04-02T05:08:38.212224","MEAN_MOTION":13.2182607,"ECCENTRICITY":0.0001172,"INCLINATION":87.9177,"RA_OF_ASC_NODE":259.1257,"ARG_OF_PERICENTER":107.3842,"MEAN_ANOMALY":252.742,"EPHEMERIS_TYPE":0,"CLASSIFICATION_TYPE":"U","NORAD_CAT_ID":54669,"ELEMENT_SET_NO":999,"REV_AT_EPOCH":16147,"BSTAR":-0.00011035000000000001,"MEAN_MOTION_DOT":-3.3e-07,"MEAN_MOTION_DDOT":0.0},{"OBJECT_NAME":"ONEWEB-0606","OBJECT_ID":"2022-166AE","EPOCH":"2026-04-02T03:50:31.955712","MEAN_MOTION":13.21773227,"ECCENTRICITY":0.0002159,"INCLINATION":87.9176,"RA_OF_ASC_NODE":259.1481,"ARG_OF_PERICENTER":87.34,"MEAN_ANOMALY":272.7981,"EPHEMERIS_TYPE":0,"CLASSIFICATION_TYPE":"U","NORAD_CAT_ID":54670,"ELEMENT_SET_NO":999,"REV_AT_EPOCH":16152,"BSTAR":-0.013844000000000002,"MEAN_MOTION_DOT":-5.696e-05,"MEAN_MOTION_DDOT":0.0},{"OBJECT_NAME":"ONEWEB-0607","OBJECT_ID":"2022-166AF","EPOCH":"2026-04-02T04:52:01.362720","MEAN_MOTION":13.21828547,"ECCENTRICITY":0.0001651,"INCLINATION":87.9183,"RA_OF_ASC_NODE":259.1067,"ARG_OF_PERICENTER":102.7875,"MEAN_ANOMALY":257.3443,"EPHEMERIS_TYPE":0,"CLASSIFICATION_TYPE":"U","NORAD_CAT_ID":54671,"ELEMENT_SET_NO":999,"REV_AT_EPOCH":16150,"BSTAR":0.0001065,"MEAN_MOTION_DOT":5.7e-07,"MEAN_MOTION_DDOT":0.0},{"OBJECT_NAME":"ONEWEB-0608","OBJECT_ID":"2022-166AG","EPOCH":"2026-04-02T05:01:31.505088","MEAN_MOTION":13.21826113,"ECCENTRICITY":0.000137,"INCLINATION":87.9186,"RA_OF_ASC_NODE":259.0997,"ARG_OF_PERICENTER":112.8302,"MEAN_ANOMALY":247.2977,"EPHEMERIS_TYPE":0,"CLASSIFICATION_TYPE":"U","NORAD_CAT_ID":54672,"ELEMENT_SET_NO":999,"REV_AT_EPOCH":16151,"BSTAR":3.7671e-05,"MEAN_MOTION_DOT":2.9e-07,"MEAN_MOTION_DDOT":0.0},{"OBJECT_NAME":"ONEWEB-0610","OBJECT_ID":"2022-166AH","EPOCH":"2026-04-02T04:33:00.719424","MEAN_MOTION":13.21861122,"ECCENTRICITY":0.0002125,"INCLINATION":87.9171,"RA_OF_ASC_NODE":259.1257,"ARG_OF_PERICENTER":110.47,"MEAN_ANOMALY":249.6662,"EPHEMERIS_TYPE":0,"CLASSIFICATION_TYPE":"U","NORAD_CAT_ID":54673,"ELEMENT_SET_NO":999,"REV_AT_EPOCH":16141,"BSTAR":0.0087518,"MEAN_MOTION_DOT":3.631e-05,"MEAN_MOTION_DDOT":0.0},{"OBJECT_NAME":"ONEWEB-0611","OBJECT_ID":"2022-166AJ","EPOCH":"2026-04-01T22:56:32.168832","MEAN_MOTION":13.21862417,"ECCENTRICITY":0.0001986,"INCLINATION":87.9181,"RA_OF_ASC_NODE":259.1695,"ARG_OF_PERICENTER":94.5423,"MEAN_ANOMALY":265.5938,"EPHEMERIS_TYPE":0,"CLASSIFICATION_TYPE":"U","NORAD_CAT_ID":54674,"ELEMENT_SET_NO":999,"REV_AT_EPOCH":16137,"BSTAR":0.0098188,"MEAN_MOTION_DOT":4.072e-05,"MEAN_MOTION_DDOT":0.0},{"OBJECT_NAME":"ONEWEB-0612","OBJECT_ID":"2022-166AK","EPOCH":"2026-04-02T04:42:32.076576","MEAN_MOTION":13.21837941,"ECCENTRICITY":0.0001787,"INCLINATION":87.9186,"RA_OF_ASC_NODE":259.108,"ARG_OF_PERICENTER":103.1062,"MEAN_ANOMALY":257.0272,"EPHEMERIS_TYPE":0,"CLASSIFICATION_TYPE":"U","NORAD_CAT_ID":54675,"ELEMENT_SET_NO":999,"REV_AT_EPOCH":16139,"BSTAR":0.0036968,"MEAN_MOTION_DOT":1.54e-05,"MEAN_MOTION_DDOT":0.0},{"OBJECT_NAME":"ONEWEB-0615","OBJECT_ID":"2022-166AL","EPOCH":"2026-04-02T04:14:02.280192","MEAN_MOTION":13.21873386,"ECCENTRICITY":0.000222,"INCLINATION":87.9148,"RA_OF_ASC_NODE":259.1327,"ARG_OF_PERICENTER":92.623,"MEAN_ANOMALY":267.5158,"EPHEMERIS_TYPE":0,"CLASSIFICATION_TYPE":"U","NORAD_CAT_ID":54676,"ELEMENT_SET_NO":999,"REV_AT_EPOCH":16140,"BSTAR":0.010684,"MEAN_MOTION_DOT":4.431e-05,"MEAN_MOTION_DDOT":0.0},{"OBJECT_NAME":"ONEWEB-0655","OBJECT_ID":"2022-166AM","EPOCH":"2026-04-02T03:38:39.263712","MEAN_MOTION":13.21788348,"ECCENTRICITY":0.0002159,"INCLINATION":87.9167,"RA_OF_ASC_NODE":259.1401,"ARG_OF_PERICENTER":101.139,"MEAN_ANOMALY":258.9987,"EPHEMERIS_TYPE":0,"CLASSIFICATION_TYPE":"U","NORAD_CAT_ID":54677,"ELEMENT_SET_NO":999,"REV_AT_EPOCH":16139,"BSTAR":-0.011333000000000001,"MEAN_MOTION_DOT":-4.662e-05,"MEAN_MOTION_DDOT":0.0},{"OBJECT_NAME":"ONEWEB-0659","OBJECT_ID":"2022-166AN","EPOCH":"2026-04-02T04:02:25.647360","MEAN_MOTION":13.21747326,"ECCENTRICITY":0.0002133,"INCLINATION":87.9178,"RA_OF_ASC_NODE":259.1372,"ARG_OF_PERICENTER":91.6575,"MEAN_ANOMALY":268.4804,"EPHEMERIS_TYPE":0,"CLASSIFICATION_TYPE":"U","NORAD_CAT_ID":54678,"ELEMENT_SET_NO":999,"REV_AT_EPOCH":16148,"BSTAR":-0.021903000000000002,"MEAN_MOTION_DOT":-9.013e-05,"MEAN_MOTION_DDOT":0.0},{"OBJECT_NAME":"ONEWEB-0685","OBJECT_ID":"2022-166AP","EPOCH":"2026-04-02T04:03:10.859616","MEAN_MOTION":13.21814553,"ECCENTRICITY":0.0001719,"INCLINATION":87.9171,"RA_OF_ASC_NODE":259.1316,"ARG_OF_PERICENTER":103.3002,"MEAN_ANOMALY":256.8324,"EPHEMERIS_TYPE":0,"CLASSIFICATION_TYPE":"U","NORAD_CAT_ID":54679,"ELEMENT_SET_NO":999,"REV_AT_EPOCH":16137,"BSTAR":8.735100000000001e-05,"MEAN_MOTION_DOT":4.9e-07,"MEAN_MOTION_DDOT":0.0}]