ONEWEB-0600             
1 54664U 22166Y   26092.19456037  .00002144  00000+0  51578-2 0  9994
2 54664  87.9175 259.1223 0001889 102.8189 257.3156 13.21845140161470
ONEWEB-0601             
1 54665U 22166Z   26092.18629102  .00002396  00000+0  57646-2 0  9990
2 54665  87.9169 259.1416 0001575 110.0103 250.1201 13.21865043161664
ONEWEB-0602             
1 54666U 22166AA  26092.15100567 -.00000983  00000+0 -24116-2 0  9995
2 54666  87.9166 259.1543 0002447  97.7135 262.4277 13.21804892161505
ONEWEB-0603             
1 54667U 22166AB  26092.15679704 -.00004410  00000+0 -10721-1 0  9995
2 54667  87.9187 259.1016 0001609 103.2269 256.9045 13.21786813161439
ONEWEB-0604             
1 54668U 22166AC  26092.22092403 -.00000022  00000+0 -84822-4 0  9990
2 54668  87.9186 259.1034 0001768  94.6531 265.4805 13.21826825161404
ONEWEB-0605             
1 54669U 22166AD  26092.21433116 -.00000033  00000+0 -11035-3 0  9997
2 54669  87.9177 259.1257 0001172 107.3842 252.7420 13.21826070161479
ONEWEB-0606             
1 54670U 22166AE  26092.16009208 -.00005696  00000+0 -13844-1 0  9992
2 54670  87.9176 259.1481 0002159  87.3400 272.7981 13.21773227161527
ONEWEB-0607             
1 54671U 22166AF  26092.20279355  .00000057  00000+0  10650-3 0  9998
2 54671  87.9183 259.1067 0001651 102.7875 257.3443 13.21828547161506
ONEWEB-0608             
1 54672U 22166AG  26092.20939242  .00000029  00000+0  37671-4 0  9999
2 54672  87.9186 259.0997 0001370 112.8302 247.2977 13.21826113161514
ONEWEB-0610             
1 54673U 22166AH  26092.18959166  .00003631  00000+0  87518-2 0  9999
2 54673  87.9171 259.1257 0002125 110.4700 249.6662 13.21861122161419
ONEWEB-0611             
1 54674U 22166AJ  26091.95592788  .00004072  00000+0  98188-2 0  9992
2 54674  87.9181 259.1695 0001986  94.5423 265.5938 13.21862417161371
ONEWEB-0612             
1 54675U 22166AK  26092.19620459  .00001540  00000+0  36968-2 0  9992
2 54675  87.9186 259.1080 0001787 103.1062 257.0272 13.21837941161393
ONEWEB-0615             
1 54676U 22166AL  26092.17641528  .00004431  00000+0  10684-1 0  9999
2 54676  87.9148 259.1327 0002220  92.6230 267.5158 13.21873386161402
ONEWEB-0655             
1 54677U 22166AM  26092.15184333 -.00004662  00000+0 -11333-1 0  9994
2 54677  87.9167 259.1401 0002159 101.1390 258.9987 13.21788348161396
ONEWEB-0659             
1 54678U 22166AN  26092.16835240 -.00009013  00000+0 -21903-1 0  9995
2 54678  87.9178 259.1372 0002133  91.6575 268.4804 13.21747326161481
ONEWEB-0685             
1 54679U 22166AP  26092.16887569  .00000049  00000+0  87351-4 0  9997
2 54679  87.9171 259.1316 0001719 103.3002 256.8324 13.21814553161371
